{"spkid": "20136617", "covariance": {"epoch": "2457189.5", "data": [["2.04732515434621E-16", "-3.025648545787738E-16", "1.548569186343776E-13", "-7.625446490225534E-14", "1.19434447760795E-13", "-1.867627454517364E-14"], ["-3.025648545787738E-16", "4.53323483106097E-16", "-2.058363678719139E-13", "1.209879073250021E-13", "-1.834757097192858E-13", "2.700042809674722E-14"], ["1.548569186343776E-13", "-2.058363678719139E-13", "2.070662117181654E-10", "-1.166214171137072E-11", "5.494177563050281E-11", "-1.794642078667881E-11"], ["-7.625446490225534E-14", "1.209879073250021E-13", "-1.166214171137072E-11", "1.019224921840366E-10", "-9.558890030351781E-11", "-5.277395282933938E-12"], ["1.19434447760795E-13", "-1.834757097192858E-13", "5.494177563050281E-11", "-9.558890030351781E-11", "1.064264913863931E-10", "-9.19864267975646E-13"], ["-1.867627454517364E-14", "2.700042809674722E-14", "-1.794642078667881E-11", "-5.277395282933938E-12", "-9.19864267975646E-13", "6.909072242708708E-12"]], "elements": [{"label": "e", "units": null, "value": ".41694853916456", "title": "eccentricity", "name": "e", "sigma": 1.43084770480517e-08}, {"label": "q", "units": "au", "value": ".9549632803142759", "title": "perihelion distance", "name": "q", "sigma": 2.12913945787047e-08}, {"value": "2457317.842651355146", "title": "time of perihelion passage", "units": "TDB", "sigma": 1.43897954022344e-05, "name": "tp", "label": "tp"}, {"name": "om", "sigma": 1.0095667000453e-05, "units": "deg", "title": "longitude of the ascending node", "value": "268.5682992314125", "label": "node"}, {"label": "peri", "units": "deg", "value": "24.85325395776839", "title": "argument of perihelion", "sigma": 1.03163216015396e-05, "name": "w"}, {"label": "i", "name": "i", "sigma": 2.62851141194188e-06, "title": "inclination", "value": "4.680555946554399", "units": "deg"}], "labels": ["e", "q", "tp", "node", "peri", "i"]}, "elements": [{"sigma": "1.4429E-8", "name": "e", "title": "eccentricity", "value": ".4174249722429326", "units": null, "label": "e"}, {"value": "1.637683450192343", "title": "semi-major axis", "units": "au", "sigma": "6.213E-9", "name": "a", "label": "a"}, {"sigma": "2.1316E-8", "name": "q", "title": "perihelion distance", "value": ".9540734814530942", "units": "au", "label": "q"}, {"name": "i", "sigma": "2.6287E-6", "units": "deg", "value": "4.681286225579768", "title": "inclination; angle with respect to x-y ecliptic plane", "label": "i"}, {"units": "deg", "value": "268.5037747363562", "title": "longitude of the ascending node", "sigma": "1.0091E-5", "name": "om", "label": "node"}, {"name": "w", "sigma": "1.0311E-5", "title": "argument of perihelion", "value": "24.94578924980467", "units": "deg", "label": "peri"}, {"title": "mean anomaly", "value": "25.72688066519413", "units": "deg", "name": "ma", "sigma": "1.6498E-5", "label": "M"}, {"label": "tp", "title": "time of perihelion passage", "value": "2461145.794877045611", "units": "TDB", "name": "tp", "sigma": "3.477E-5"}, {"label": "period", "name": "per", "sigma": "4.3562E-6", "value": "765.4967782481175", "title": "sidereal orbital period", "units": "d"}, {"label": "n", "sigma": "2.6762E-9", "name": "n", "units": "deg/d", "title": "mean motion", "value": ".4702828414560807"}, {"label": "Q", "name": "ad", "sigma": "8.8065E-9", "units": "au", "title": "aphelion distance", "value": "2.321293418931592"}], "epoch": "2461200.5"}